{
  "type": "FeatureCollection",
  "features": [
    {
      "type": "Feature",
      "properties": {
        "norad_id": 34492,
        "name": "IRIDIUM 33 DEB",
        "group": "iridium-33-debris",
        "lat": -63.305537600338745,
        "lon": -35.827338577189494,
        "alt_km": 800.1174728575752,
        "timestamp": "2025-12-21T03:56:51.218200+00:00",
        "meta_object_name": "IRIDIUM 33 DEB",
        "meta_object_id": "1997-051GH",
        "meta_epoch": "2025-12-19T10:45:18.347328",
        "meta_mean_motion": 14.25846982,
        "meta_eccentricity": 0.0188646,
        "meta_inclination": 86.4707,
        "meta_ra_of_asc_node": 331.9164,
        "meta_arg_of_pericenter": 216.3823,
        "meta_mean_anomaly": 273.3437,
        "meta_ephemeris_type": 0,
        "meta_classification_type": "U",
        "meta_norad_cat_id": 34492,
        "meta_element_set_no": 999,
        "meta_rev_at_epoch": 85154,
        "meta_bstar": 0.0022012,
        "meta_mean_motion_dot": 6.332e-05,
        "meta_mean_motion_ddot": 0,
        "tle_line1": "1 34492U 97051GH  25353.44812902  .00006332  00000+0  22012-2 0  9994",
        "tle_line2": "2 34492  86.4707 331.9164 0188646 216.3823 273.3437 14.25846982851542"
      },
      "geometry": {
        "type": "Point",
        "coordinates": [
          -35.827338577189494,
          -63.305537600338745
        ]
      }
    },
    {
      "type": "Feature",
      "properties": {
        "norad_id": 34497,
        "name": "IRIDIUM 33 DEB",
        "group": "iridium-33-debris",
        "lat": -42.04922457035758,
        "lon": -127.83091664563774,
        "alt_km": 806.4225458979108,
        "timestamp": "2025-12-21T03:56:51.218209+00:00",
        "meta_object_name": "IRIDIUM 33 DEB",
        "meta_object_id": "1997-051GN",
        "meta_epoch": "2025-12-19T10:35:53.025216",
        "meta_mean_motion": 14.2747197,
        "meta_eccentricity": 0.0078309,
        "meta_inclination": 86.2774,
        "meta_ra_of_asc_node": 49.5385,
        "meta_arg_of_pericenter": 317.619,
        "meta_mean_anomaly": 57.0969,
        "meta_ephemeris_type": 0,
        "meta_classification_type": "U",
        "meta_norad_cat_id": 34497,
        "meta_element_set_no": 999,
        "meta_rev_at_epoch": 86979,
        "meta_bstar": 0.00044435,
        "meta_mean_motion_dot": 1.145e-05,
        "meta_mean_motion_ddot": 0,
        "tle_line1": "1 34497U 97051GN  25353.44158594  .00001145  00000+0  44435-3 0  9990",
        "tle_line2": "2 34497  86.2774  49.5385 0078309 317.6190  57.0969 14.27471970869798"
      },
      "geometry": {
        "type": "Point",
        "coordinates": [
          -127.83091664563774,
          -42.04922457035758
        ]
      }
    },
    {
      "type": "Feature",
      "properties": {
        "norad_id": 34508,
        "name": "IRIDIUM 33 DEB",
        "group": "iridium-33-debris",
        "lat": -6.529633511204356,
        "lon": 98.65571202719784,
        "alt_km": 809.434988569541,
        "timestamp": "2025-12-21T03:56:51.218218+00:00",
        "meta_object_name": "IRIDIUM 33 DEB",
        "meta_object_id": "1997-051GZ",
        "meta_epoch": "2025-12-20T17:57:40.604832",
        "meta_mean_motion": 14.38482404,
        "meta_eccentricity": 0.0066615,
        "meta_inclination": 86.371,
        "meta_ra_of_asc_node": 99.2483,
        "meta_arg_of_pericenter": 147.2319,
        "meta_mean_anomaly": 213.3038,
        "meta_ephemeris_type": 0,
        "meta_classification_type": "U",
        "meta_norad_cat_id": 34508,
        "meta_element_set_no": 999,
        "meta_rev_at_epoch": 87424,
        "meta_bstar": 0.00079549,
        "meta_mean_motion_dot": 2.512e-05,
        "meta_mean_motion_ddot": 0,
        "tle_line1": "1 34508U 97051GZ  25354.74838663  .00002512  00000+0  79549-3 0  9992",
        "tle_line2": "2 34508  86.3710  99.2483 0066615 147.2319 213.3038 14.38482404874246"
      },
      "geometry": {
        "type": "Point",
        "coordinates": [
          98.65571202719784,
          -6.529633511204356
        ]
      }
    },
    {
      "type": "Feature",
      "properties": {
        "norad_id": 34521,
        "name": "IRIDIUM 33 DEB",
        "group": "iridium-33-debris",
        "lat": -27.111551573481464,
        "lon": -151.30321628518521,
        "alt_km": 686.4105009849163,
        "timestamp": "2025-12-21T03:56:51.218228+00:00",
        "meta_object_name": "IRIDIUM 33 DEB",
        "meta_object_id": "1997-051HN",
        "meta_epoch": "2025-12-20T13:52:33.220128",
        "meta_mean_motion": 14.63425265,
        "meta_eccentricity": 0.0002518,
        "meta_inclination": 86.3788,
        "meta_ra_of_asc_node": 27.0969,
        "meta_arg_of_pericenter": 181.0734,
        "meta_mean_anomaly": 179.0473,
        "meta_ephemeris_type": 0,
        "meta_classification_type": "U",
        "meta_norad_cat_id": 34521,
        "meta_element_set_no": 999,
        "meta_rev_at_epoch": 88587,
        "meta_bstar": 0.00052049,
        "meta_mean_motion_dot": 2.713e-05,
        "meta_mean_motion_ddot": 0,
        "tle_line1": "1 34521U 97051HN  25354.57816227  .00002713  00000+0  52049-3 0  9999",
        "tle_line2": "2 34521  86.3788  27.0969 0002518 181.0734 179.0473 14.63425265885875"
      },
      "geometry": {
        "type": "Point",
        "coordinates": [
          -151.30321628518521,
          -27.111551573481464
        ]
      }
    },
    {
      "type": "Feature",
      "properties": {
        "norad_id": 34525,
        "name": "IRIDIUM 33 DEB",
        "group": "iridium-33-debris",
        "lat": 54.05309923056128,
        "lon": -141.77172906364248,
        "alt_km": 740.9259066192226,
        "timestamp": "2025-12-21T03:56:51.218237+00:00",
        "meta_object_name": "IRIDIUM 33 DEB",
        "meta_object_id": "1997-051HS",
        "meta_epoch": "2025-12-20T04:21:41.244768",
        "meta_mean_motion": 14.42921764,
        "meta_eccentricity": 0.00064705,
        "meta_inclination": 86.3721,
        "meta_ra_of_asc_node": 43.6672,
        "meta_arg_of_pericenter": 78.1419,
        "meta_mean_anomaly": 345.8375,
        "meta_ephemeris_type": 0,
        "meta_classification_type": "U",
        "meta_norad_cat_id": 34525,
        "meta_element_set_no": 999,
        "meta_rev_at_epoch": 88195,
        "meta_bstar": 0.00024009823,
        "meta_mean_motion_dot": 8.22e-06,
        "meta_mean_motion_ddot": 0,
        "tle_line1": "1 34525U 97051HS  25354.18172737  .00000822  00000+0  24010-3 0  9997",
        "tle_line2": "2 34525  86.3721  43.6672 0006470  78.1419 345.8375 14.42921764881959"
      },
      "geometry": {
        "type": "Point",
        "coordinates": [
          -141.77172906364248,
          54.05309923056128
        ]
      }
    },
    {
      "type": "Feature",
      "properties": {
        "norad_id": 34529,
        "name": "IRIDIUM 33 DEB",
        "group": "iridium-33-debris",
        "lat": -49.013475997945086,
        "lon": 27.622681100514328,
        "alt_km": 767.2453648213223,
        "timestamp": "2025-12-21T03:56:51.218246+00:00",
        "meta_object_name": "IRIDIUM 33 DEB",
        "meta_object_id": "1997-051HW",
        "meta_epoch": "2025-12-20T19:50:25.863072",
        "meta_mean_motion": 14.4062162,
        "meta_eccentricity": 0.0005773,
        "meta_inclination": 86.3633,
        "meta_ra_of_asc_node": 31.9643,
        "meta_arg_of_pericenter": 152.9902,
        "meta_mean_anomaly": 207.1599,
        "meta_ephemeris_type": 0,
        "meta_classification_type": "U",
        "meta_norad_cat_id": 34529,
        "meta_element_set_no": 999,
        "meta_rev_at_epoch": 88258,
        "meta_bstar": 8.1123e-05,
        "meta_mean_motion_dot": 2.79e-06,
        "meta_mean_motion_ddot": 0,
        "tle_line1": "1 34529U 97051HW  25354.82668823  .00000279  00000+0  81123-4 0  9993",
        "tle_line2": "2 34529  86.3633  31.9643 0005773 152.9902 207.1599 14.40621620882580"
      },
      "geometry": {
        "type": "Point",
        "coordinates": [
          27.622681100514328,
          -49.013475997945086
        ]
      }
    },
    {
      "type": "Feature",
      "properties": {
        "norad_id": 34538,
        "name": "IRIDIUM 33 DEB",
        "group": "iridium-33-debris",
        "lat": -29.889693563620675,
        "lon": -175.98898836979834,
        "alt_km": 755.2570366236141,
        "timestamp": "2025-12-21T03:56:51.218255+00:00",
        "meta_object_name": "IRIDIUM 33 DEB",
        "meta_object_id": "1997-051JF",
        "meta_epoch": "2025-12-20T05:54:09.537408",
        "meta_mean_motion": 14.42688568,
        "meta_eccentricity": 0.00321834,
        "meta_inclination": 86.2759,
        "meta_ra_of_asc_node": 2.2678,
        "meta_arg_of_pericenter": 302.109,
        "meta_mean_anomaly": 180.5468,
        "meta_ephemeris_type": 0,
        "meta_classification_type": "U",
        "meta_norad_cat_id": 34538,
        "meta_element_set_no": 999,
        "meta_rev_at_epoch": 87864,
        "meta_bstar": 0.00064183465,
        "meta_mean_motion_dot": 2.166e-05,
        "meta_mean_motion_ddot": 0,
        "tle_line1": "1 34538U 97051JF  25354.24594372  .00002166  00000+0  64183-3 0  9999",
        "tle_line2": "2 34538  86.2759   2.2678 0032183 302.1090 180.5468 14.42688568878646"
      },
      "geometry": {
        "type": "Point",
        "coordinates": [
          -175.98898836979834,
          -29.889693563620675
        ]
      }
    }
  ]
}